STARLINK-36515          
1 67430U 26005AC  26036.11911507  .00101778  00000+0  17167-2 0  9992
2 67430  42.9999  64.6589 0001269 260.0038 100.0679 15.50603419  3672
STARLINK-36443          
1 67431U 26005AD  26036.00002314 -.00032065  00000+0 -54316-3 0  9990
2 67431  42.9999  65.3396 0001216 255.1630 165.0888 15.50570460  4888
STARLINK-36460          
1 67432U 26005AE  26036.11774454  .00119960  00000+0  20170-2 0  9992
2 67432  42.9996  64.6479 0001323 280.9030  79.1681 15.50612488  3678
YAOGAN-50 01            
1 67433U 26006A   26035.99185079  .00000378  00000+0  17151-3 0  9996
2 67433 142.0318 296.9353 0000747 263.4523  96.6111 13.83240734  3129
CZ-6A R/B               
1 67434U 26006B   26035.77460262  .00001787  00000+0  21177-3 0  9991
2 67434 142.0437 309.6086 0203524 244.4779 113.4781 14.62301185  3258
HULIANWANG DIGUI-137    
1 67435U 26007A   26036.15500825  .00000005  00000+0  14548-3 0  9992
2 67435  50.0063 205.2150 0000222 338.5173  21.5711 13.77663410  3134
HULIANWANG DIGUI-138    
1 67436U 26007B   26035.94255457  .00000002  00000+0  14374-3 0  9991
2 67436  50.0048 206.0846 0000394 176.4326 183.6570 13.77286287  3101
HULIANWANG DIGUI-139    
1 67437U 26007C   26035.86710473  .00000035  00000+0  17616-3 0  9995
2 67437  50.0000 206.3427 0000664   0.1928 359.8965 13.77492418  3097
HULIANWANG DIGUI-140    
1 67438U 26007D   26036.16324956  .00000024  00000+0  16629-3 0  9998
2 67438  50.0042 205.2511 0000308  17.7531 342.3373 13.77124886  3131
HULIANWANG DIGUI-141    
1 67439U 26007E   26035.86152842  .00000010  00000+0  15040-3 0  9999
2 67439  50.0031 206.3187 0000321 203.5529 156.5350 13.77851915  3093
HULIANWANG DIGUI-142    
1 67440U 26007F   26035.93102917 -.00000144  00000+0 -21562-5 0  9995
2 67440  50.0107 206.0429 0000233 306.1703  53.9168 13.78000262  3102
HULIANWANG DIGUI-143    
1 67441U 26007G   26036.14555156  .00000006  00000+0  14591-3 0  9994
2 67441  50.0086 205.1722 0000413 221.9248 138.1614 13.78216064  3137
