CCSDS_OMM_VERS = 2.0
CREATION_DATE  = 
ORIGINATOR     = 

OBJECT_NAME    = STARLINK-36515
OBJECT_ID      = 2026-005AC
CENTER_NAME    = EARTH
REF_FRAME      = TEME
TIME_SYSTEM    = UTC
MEAN_ELEMENT_THEORY = SGP/SGP4

EPOCH          = 2026-02-05T02:51:31.542048
MEAN_MOTION    = 15.50603419
ECCENTRICITY   = .0001269
INCLINATION    = 42.9999
RA_OF_ASC_NODE = 64.6589
ARG_OF_PERICENTER = 260.0038
MEAN_ANOMALY   = 100.0679

EPHEMERIS_TYPE = 0
CLASSIFICATION_TYPE = U
NORAD_CAT_ID   = 67430
ELEMENT_SET_NO = 999
REV_AT_EPOCH   = 367
BSTAR          = .17167E-2
MEAN_MOTION_DOT = .101778E-2
MEAN_MOTION_DDOT = 0

CCSDS_OMM_VERS = 2.0
CREATION_DATE  = 
ORIGINATOR     = 

OBJECT_NAME    = STARLINK-36443
OBJECT_ID      = 2026-005AD
CENTER_NAME    = EARTH
REF_FRAME      = TEME
TIME_SYSTEM    = UTC
MEAN_ELEMENT_THEORY = SGP/SGP4

EPOCH          = 2026-02-05T00:00:01.999296
MEAN_MOTION    = 15.50570460
ECCENTRICITY   = .0001216
INCLINATION    = 42.9999
RA_OF_ASC_NODE = 65.3396
ARG_OF_PERICENTER = 255.1630
MEAN_ANOMALY   = 165.0888

EPHEMERIS_TYPE = 0
CLASSIFICATION_TYPE = U
NORAD_CAT_ID   = 67431
ELEMENT_SET_NO = 999
REV_AT_EPOCH   = 488
BSTAR          = -.54316E-3
MEAN_MOTION_DOT = -.32065E-3
MEAN_MOTION_DDOT = 0

CCSDS_OMM_VERS = 2.0
CREATION_DATE  = 
ORIGINATOR     = 

OBJECT_NAME    = STARLINK-36460
OBJECT_ID      = 2026-005AE
CENTER_NAME    = EARTH
REF_FRAME      = TEME
TIME_SYSTEM    = UTC
MEAN_ELEMENT_THEORY = SGP/SGP4

EPOCH          = 2026-02-05T02:49:33.128256
MEAN_MOTION    = 15.50612488
ECCENTRICITY   = .0001323
INCLINATION    = 42.9996
RA_OF_ASC_NODE = 64.6479
ARG_OF_PERICENTER = 280.9030
MEAN_ANOMALY   = 79.1681

EPHEMERIS_TYPE = 0
CLASSIFICATION_TYPE = U
NORAD_CAT_ID   = 67432
ELEMENT_SET_NO = 999
REV_AT_EPOCH   = 367
BSTAR          = .2017E-2
MEAN_MOTION_DOT = .11996E-2
MEAN_MOTION_DDOT = 0

CCSDS_OMM_VERS = 2.0
CREATION_DATE  = 
ORIGINATOR     = 

OBJECT_NAME    = YAOGAN-50 01
OBJECT_ID      = 2026-006A
CENTER_NAME    = EARTH
REF_FRAME      = TEME
TIME_SYSTEM    = UTC
MEAN_ELEMENT_THEORY = SGP/SGP4

EPOCH          = 2026-02-04T23:48:15.908256
MEAN_MOTION    = 13.83240734
ECCENTRICITY   = .0000747
INCLINATION    = 142.0318
RA_OF_ASC_NODE = 296.9353
ARG_OF_PERICENTER = 263.4523
MEAN_ANOMALY   = 96.6111

EPHEMERIS_TYPE = 0
CLASSIFICATION_TYPE = U
NORAD_CAT_ID   = 67433
ELEMENT_SET_NO = 999
REV_AT_EPOCH   = 312
BSTAR          = .17151E-3
MEAN_MOTION_DOT = .378E-5
MEAN_MOTION_DDOT = 0

CCSDS_OMM_VERS = 2.0
CREATION_DATE  = 
ORIGINATOR     = 

OBJECT_NAME    = CZ-6A R/B
OBJECT_ID      = 2026-006B
CENTER_NAME    = EARTH
REF_FRAME      = TEME
TIME_SYSTEM    = UTC
MEAN_ELEMENT_THEORY = SGP/SGP4

EPOCH          = 2026-02-04T18:35:25.666368
MEAN_MOTION    = 14.62301185
ECCENTRICITY   = .0203524
INCLINATION    = 142.0437
RA_OF_ASC_NODE = 309.6086
ARG_OF_PERICENTER = 244.4779
MEAN_ANOMALY   = 113.4781

EPHEMERIS_TYPE = 0
CLASSIFICATION_TYPE = U
NORAD_CAT_ID   = 67434
ELEMENT_SET_NO = 999
REV_AT_EPOCH   = 325
BSTAR          = .21177E-3
MEAN_MOTION_DOT = .1787E-4
MEAN_MOTION_DDOT = 0

CCSDS_OMM_VERS = 2.0
CREATION_DATE  = 
ORIGINATOR     = 

OBJECT_NAME    = HULIANWANG DIGUI-137
OBJECT_ID      = 2026-007A
CENTER_NAME    = EARTH
REF_FRAME      = TEME
TIME_SYSTEM    = UTC
MEAN_ELEMENT_THEORY = SGP/SGP4

EPOCH          = 2026-02-05T03:43:12.712800
MEAN_MOTION    = 13.77663410
ECCENTRICITY   = .0000222
INCLINATION    = 50.0063
RA_OF_ASC_NODE = 205.2150
ARG_OF_PERICENTER = 338.5173
MEAN_ANOMALY   = 21.5711

EPHEMERIS_TYPE = 0
CLASSIFICATION_TYPE = U
NORAD_CAT_ID   = 67435
ELEMENT_SET_NO = 999
REV_AT_EPOCH   = 313
BSTAR          = .14548E-3
MEAN_MOTION_DOT = .5E-7
MEAN_MOTION_DDOT = 0

CCSDS_OMM_VERS = 2.0
CREATION_DATE  = 
ORIGINATOR     = 

OBJECT_NAME    = HULIANWANG DIGUI-138
OBJECT_ID      = 2026-007B
CENTER_NAME    = EARTH
REF_FRAME      = TEME
TIME_SYSTEM    = UTC
MEAN_ELEMENT_THEORY = SGP/SGP4

EPOCH          = 2026-02-04T22:37:16.714848
MEAN_MOTION    = 13.77286287
ECCENTRICITY   = .0000394
INCLINATION    = 50.0048
RA_OF_ASC_NODE = 206.0846
ARG_OF_PERICENTER = 176.4326
MEAN_ANOMALY   = 183.6570

EPHEMERIS_TYPE = 0
CLASSIFICATION_TYPE = U
NORAD_CAT_ID   = 67436
ELEMENT_SET_NO = 999
REV_AT_EPOCH   = 310
BSTAR          = .14374E-3
MEAN_MOTION_DOT = .2E-7
MEAN_MOTION_DDOT = 0

CCSDS_OMM_VERS = 2.0
CREATION_DATE  = 
ORIGINATOR     = 

OBJECT_NAME    = HULIANWANG DIGUI-139
OBJECT_ID      = 2026-007C
CENTER_NAME    = EARTH
REF_FRAME      = TEME
TIME_SYSTEM    = UTC
MEAN_ELEMENT_THEORY = SGP/SGP4

EPOCH          = 2026-02-04T20:48:37.848672
MEAN_MOTION    = 13.77492418
ECCENTRICITY   = .0000664
INCLINATION    = 50.0000
RA_OF_ASC_NODE = 206.3427
ARG_OF_PERICENTER = 0.1928
MEAN_ANOMALY   = 359.8965

EPHEMERIS_TYPE = 0
CLASSIFICATION_TYPE = U
NORAD_CAT_ID   = 67437
ELEMENT_SET_NO = 999
REV_AT_EPOCH   = 309
BSTAR          = .17616E-3
MEAN_MOTION_DOT = .35E-6
MEAN_MOTION_DDOT = 0

CCSDS_OMM_VERS = 2.0
CREATION_DATE  = 
ORIGINATOR     = 

OBJECT_NAME    = HULIANWANG DIGUI-140
OBJECT_ID      = 2026-007D
CENTER_NAME    = EARTH
REF_FRAME      = TEME
TIME_SYSTEM    = UTC
MEAN_ELEMENT_THEORY = SGP/SGP4

EPOCH          = 2026-02-05T03:55:04.761984
MEAN_MOTION    = 13.77124886
ECCENTRICITY   = .0000308
INCLINATION    = 50.0042
RA_OF_ASC_NODE = 205.2511
ARG_OF_PERICENTER = 17.7531
MEAN_ANOMALY   = 342.3373

EPHEMERIS_TYPE = 0
CLASSIFICATION_TYPE = U
NORAD_CAT_ID   = 67438
ELEMENT_SET_NO = 999
REV_AT_EPOCH   = 313
BSTAR          = .16629E-3
MEAN_MOTION_DOT = .24E-6
MEAN_MOTION_DDOT = 0

CCSDS_OMM_VERS = 2.0
CREATION_DATE  = 
ORIGINATOR     = 

OBJECT_NAME    = HULIANWANG DIGUI-141
OBJECT_ID      = 2026-007E
CENTER_NAME    = EARTH
REF_FRAME      = TEME
TIME_SYSTEM    = UTC
MEAN_ELEMENT_THEORY = SGP/SGP4

EPOCH          = 2026-02-04T20:40:36.055488
MEAN_MOTION    = 13.77851915
ECCENTRICITY   = .0000321
INCLINATION    = 50.0031
RA_OF_ASC_NODE = 206.3187
ARG_OF_PERICENTER = 203.5529
MEAN_ANOMALY   = 156.5350

EPHEMERIS_TYPE = 0
CLASSIFICATION_TYPE = U
NORAD_CAT_ID   = 67439
ELEMENT_SET_NO = 999
REV_AT_EPOCH   = 309
BSTAR          = .1504E-3
MEAN_MOTION_DOT = .1E-6
MEAN_MOTION_DDOT = 0

CCSDS_OMM_VERS = 2.0
CREATION_DATE  = 
ORIGINATOR     = 

OBJECT_NAME    = HULIANWANG DIGUI-142
OBJECT_ID      = 2026-007F
CENTER_NAME    = EARTH
REF_FRAME      = TEME
TIME_SYSTEM    = UTC
MEAN_ELEMENT_THEORY = SGP/SGP4

EPOCH          = 2026-02-04T22:20:40.920288
MEAN_MOTION    = 13.78000262
ECCENTRICITY   = .0000233
INCLINATION    = 50.0107
RA_OF_ASC_NODE = 206.0429
ARG_OF_PERICENTER = 306.1703
MEAN_ANOMALY   = 53.9168

EPHEMERIS_TYPE = 0
CLASSIFICATION_TYPE = U
NORAD_CAT_ID   = 67440
ELEMENT_SET_NO = 999
REV_AT_EPOCH   = 310
BSTAR          = -.21562E-5
MEAN_MOTION_DOT = -.144E-5
MEAN_MOTION_DDOT = 0

CCSDS_OMM_VERS = 2.0
CREATION_DATE  = 
ORIGINATOR     = 

OBJECT_NAME    = HULIANWANG DIGUI-143
OBJECT_ID      = 2026-007G
CENTER_NAME    = EARTH
REF_FRAME      = TEME
TIME_SYSTEM    = UTC
MEAN_ELEMENT_THEORY = SGP/SGP4

EPOCH          = 2026-02-05T03:29:35.654784
MEAN_MOTION    = 13.78216064
ECCENTRICITY   = .0000413
INCLINATION    = 50.0086
RA_OF_ASC_NODE = 205.1722
ARG_OF_PERICENTER = 221.9248
MEAN_ANOMALY   = 138.1614

EPHEMERIS_TYPE = 0
CLASSIFICATION_TYPE = U
NORAD_CAT_ID   = 67441
ELEMENT_SET_NO = 999
REV_AT_EPOCH   = 313
BSTAR          = .14591E-3
MEAN_MOTION_DOT = .6E-7
MEAN_MOTION_DDOT = 0

